{"type": "FeatureCollection", "features": [ {"type": "Feature", "properties": {"norad_id": 38157, "name": "FENGYUN 1C DEB", "group": "fengyun-1c-debris", "lat": 47.09881402494972, "lon": 77.54104786733386, "alt_km": 618.1844996937225, "timestamp": "2025-12-06T14:35:37.416433+00:00", "meta": {"OBJECT_NAME": "FENGYUN 1C DEB", "OBJECT_ID": "1999-025ERE", "EPOCH": "2025-12-04T11:18:50.768352", "MEAN_MOTION": 14.21692278, "ECCENTRICITY": 0.0273908, "INCLINATION": 99.6562, "RA_OF_ASC_NODE": 244.6453, "ARG_OF_PERICENTER": 137.5516, "MEAN_ANOMALY": 224.7201, "EPHEMERIS_TYPE": 0, "CLASSIFICATION_TYPE": "U", "NORAD_CAT_ID": 38157, "ELEMENT_SET_NO": 999, "REV_AT_EPOCH": 76130, "BSTAR": 0.0011969, "MEAN_MOTION_DOT": 3.798e-05, "MEAN_MOTION_DDOT": 0}, "tle": {"line1": "1 38157U 99025ERE 25338.47142093  .00003798  00000+0  11969-2 0  9994", "line2": "2 38157  99.6562 244.6453 0273908 137.5516 224.7201 14.21692278761305"}}, "geometry": {"type": "Point", "coordinates": [77.54104786733386, 47.09881402494972]}}, {"type": "Feature", "properties": {"norad_id": 38159, "name": "FENGYUN 1C DEB", "group": "fengyun-1c-debris", "lat": -60.55705547868243, "lon": 35.21234850103714, "alt_km": 906.7989639016796, "timestamp": "2025-12-06T14:35:37.416443+00:00", "meta": {"OBJECT_NAME": "FENGYUN 1C DEB", "OBJECT_ID": "1999-025ERG", "EPOCH": "2025-12-04T22:05:20.152032", "MEAN_MOTION": 14.03448484, "ECCENTRICITY": 0.005704, "INCLINATION": 99.3156, "RA_OF_ASC_NODE": 230.39, "ARG_OF_PERICENTER": 2.347, "MEAN_ANOMALY": 357.7952, "EPHEMERIS_TYPE": 0, "CLASSIFICATION_TYPE": "U", "NORAD_CAT_ID": 38159, "ELEMENT_SET_NO": 999, "REV_AT_EPOCH": 83002, "BSTAR": 0.0010527, "MEAN_MOTION_DOT": 1.625e-05, "MEAN_MOTION_DDOT": 0}, "tle": {"line1": "1 38159U 99025ERG 25338.92037213  .00001625  00000+0  10527-2 0  9999", "line2": "2 38159  99.3156 230.3900 0057040   2.3470 357.7952 14.03448484830021"}}, "geometry": {"type": "Point", "coordinates": [35.21234850103714, -60.55705547868243]}}, {"type": "Feature", "properties": {"norad_id": 38163, "name": "FENGYUN 1C DEB", "group": "fengyun-1c-debris", "lat": 68.96647159996589, "lon": -138.18913389814367, "alt_km": 914.3304972464975, "timestamp": "2025-12-06T14:35:37.416452+00:00", "meta": {"OBJECT_NAME": "FENGYUN 1C DEB", "OBJECT_ID": "1999-025ERL", "EPOCH": "2025-12-04T21:04:40.965888", "MEAN_MOTION": 14.05886533, "ECCENTRICITY": 0.0075628, "INCLINATION": 99.1295, "RA_OF_ASC_NODE": 15.3487, "ARG_OF_PERICENTER": 264.2585, "MEAN_ANOMALY": 94.9956, "EPHEMERIS_TYPE": 0, "CLASSIFICATION_TYPE": "U", "NORAD_CAT_ID": 38163, "ELEMENT_SET_NO": 999, "REV_AT_EPOCH": 24431, "BSTAR": 0.0013888, "MEAN_MOTION_DOT": 2.286e-05, "MEAN_MOTION_DDOT": 0}, "tle": {"line1": "1 38163U 99025ERL 25338.87825192  .00002286  00000+0  13888-2 0  9996", "line2": "2 38163  99.1295  15.3487 0075628 264.2585  94.9956 14.05886533244315"}}, "geometry": {"type": "Point", "coordinates": [-138.18913389814367, 68.96647159996589]}}, {"type": "Feature", "properties": {"norad_id": 38166, "name": "FENGYUN 1C DEB", "group": "fengyun-1c-debris", "lat": 20.1999525159028, "lon": -93.21148137665354, "alt_km": 792.6782816503392, "timestamp": "2025-12-06T14:35:37.416462+00:00", "meta": {"OBJECT_NAME": "FENGYUN 1C DEB", "OBJECT_ID": "1999-025ERP", "EPOCH": "2025-12-06T00:25:47.622720", "MEAN_MOTION": 14.30803528, "ECCENTRICITY": 0.00530343, "INCLINATION": 99.0789, "RA_OF_ASC_NODE": 82.7998, "ARG_OF_PERICENTER": 65.2364, "MEAN_ANOMALY": 295.4323, "EPHEMERIS_TYPE": 0, "CLASSIFICATION_TYPE": "U", "NORAD_CAT_ID": 38166, "ELEMENT_SET_NO": 999, "REV_AT_EPOCH": 63676, "BSTAR": 0.0042389373, "MEAN_MOTION_DOT": 0.00011252, "MEAN_MOTION_DDOT": 0}, "tle": {"line1": "1 38166U 99025ERP 25340.01791230  .00011252  00000+0  42389-2 0  9994", "line2": "2 38166  99.0789  82.7998 0053034  65.2364 295.4323 14.30803528636762"}}, "geometry": {"type": "Point", "coordinates": [-93.21148137665354, 20.1999525159028]}}, {"type": "Feature", "properties": {"norad_id": 38169, "name": "FENGYUN 1C DEB", "group": "fengyun-1c-debris", "lat": 52.46947851886482, "lon": 146.07668470912415, "alt_km": 637.285359744692, "timestamp": "2025-12-06T14:35:37.416474+00:00", "meta": {"OBJECT_NAME": "FENGYUN 1C DEB", "OBJECT_ID": "1999-025ERS", "EPOCH": "2025-11-22T03:51:43.920000", "MEAN_MOTION": 14.70462609, "ECCENTRICITY": 0.00311315, "INCLINATION": 98.9783, "RA_OF_ASC_NODE": 298.2991, "ARG_OF_PERICENTER": 127.7379, "MEAN_ANOMALY": 232.6652, "EPHEMERIS_TYPE": 0, "CLASSIFICATION_TYPE": "U", "NORAD_CAT_ID": 38169, "ELEMENT_SET_NO": 999, "REV_AT_EPOCH": 60966, "BSTAR": 0.0026738914, "MEAN_MOTION_DOT": 0.00016302, "MEAN_MOTION_DDOT": 0}, "tle": {"line1": "1 38169U 99025ERS 25326.16092500  .00016302  00000+0  26739-2 0  9993", "line2": "2 38169  98.9783 298.2991 0031131 127.7379 232.6652 14.70462609609660"}}, "geometry": {"type": "Point", "coordinates": [146.07668470912415, 52.46947851886482]}}, {"type": "Feature", "properties": {"norad_id": 38173, "name": "FENGYUN 1C DEB", "group": "fengyun-1c-debris", "lat": 65.89120121476661, "lon": 81.27745166622277, "alt_km": 651.371941121296, "timestamp": "2025-12-06T14:35:37.416485+00:00", "meta": {"OBJECT_NAME": "FENGYUN 1C DEB", "OBJECT_ID": "1999-025ERW", "EPOCH": "2025-11-24T11:18:51.497568", "MEAN_MOTION": 14.37024249, "ECCENTRICITY": 0.01622994, "INCLINATION": 98.9991, "RA_OF_ASC_NODE": 227.8463, "ARG_OF_PERICENTER": 166.3393, "MEAN_ANOMALY": 194.2263, "EPHEMERIS_TYPE": 0, "CLASSIFICATION_TYPE": "U", "NORAD_CAT_ID": 38173, "ELEMENT_SET_NO": 999, "REV_AT_EPOCH": 60381, "BSTAR": 0.00095115, "MEAN_MOTION_DOT": 3.231e-05, "MEAN_MOTION_DDOT": 0}, "tle": {"line1": "1 38173U 99025ERW 25328.47142937  .00003231  00000+0  95115-3 0  9996", "line2": "2 38173  98.9991 227.8463 0162299 166.3393 194.2263 14.37024249603812"}}, "geometry": {"type": "Point", "coordinates": [81.27745166622277, 65.89120121476661]}}, {"type": "Feature", "properties": {"norad_id": 38491, "name": "FENGYUN 1C DEB", "group": "fengyun-1c-debris", "lat": 50.74808836545071, "lon": 178.0973045968683, "alt_km": 884.1831968779898, "timestamp": "2025-12-06T14:35:37.416496+00:00", "meta": {"OBJECT_NAME": "FENGYUN 1C DEB", "OBJECT_ID": "1999-025ESA", "EPOCH": "2025-11-07T18:37:17.530176", "MEAN_MOTION": 13.96213514, "ECCENTRICITY": 0.02268827, "INCLINATION": 98.9363, "RA_OF_ASC_NODE": 318.985, "ARG_OF_PERICENTER": 122.5823, "MEAN_ANOMALY": 239.7468, "EPHEMERIS_TYPE": 0, "CLASSIFICATION_TYPE": "U", "NORAD_CAT_ID": 38491, "ELEMENT_SET_NO": 999, "REV_AT_EPOCH": 65972, "BSTAR": 0.00032180703, "MEAN_MOTION_DOT": 5.09e-06, "MEAN_MOTION_DDOT": 0}, "tle": {"line1": "1 38491U 99025ESA 25311.77589734  .00000509  00000+0  32181-3 0  9993", "line2": "2 38491  98.9363 318.9850 0226882 122.5823 239.7468 13.96213514659723"}}, "geometry": {"type": "Point", "coordinates": [178.0973045968683, 50.74808836545071]}}, {"type": "Feature", "properties": {"norad_id": 38492, "name": "FENGYUN 1C DEB", "group": "fengyun-1c-debris", "lat": 72.55530340450225, "lon": -98.37405074001576, "alt_km": 823.8285339679414, "timestamp": "2025-12-06T14:35:37.416508+00:00", "meta": {"OBJECT_NAME": "FENGYUN 1C DEB", "OBJECT_ID": "1999-025ESB", "EPOCH": "2025-11-07T22:24:32.618304", "MEAN_MOTION": 13.93045648, "ECCENTRICITY": 0.02334575, "INCLINATION": 98.6097, "RA_OF_ASC_NODE": 26.0841, "ARG_OF_PERICENTER": 245.4391, "MEAN_ANOMALY": 112.2279, "EPHEMERIS_TYPE": 0, "CLASSIFICATION_TYPE": "U", "NORAD_CAT_ID": 38492, "ELEMENT_SET_NO": 999, "REV_AT_EPOCH": 55519, "BSTAR": 0.0058484062, "MEAN_MOTION_DOT": 9.486e-05, "MEAN_MOTION_DDOT": 0}, "tle": {"line1": "1 38492U 99025ESB 25311.93371086  .00009486  00000+0  58484-2 0  9997", "line2": "2 38492  98.6097  26.0841 0233457 245.4391 112.2279 13.93045648555192"}}, "geometry": {"type": "Point", "coordinates": [-98.37405074001576, 72.55530340450225]}}, {"type": "Feature", "properties": {"norad_id": 38493, "name": "FENGYUN 1C DEB", "group": "fengyun-1c-debris", "lat": 18.620319349783607, "lon": 123.49766260487692, "alt_km": 1069.8666701587017, "timestamp": "2025-12-06T14:35:37.416518+00:00", "meta": {"OBJECT_NAME": "FENGYUN 1C DEB", "OBJECT_ID": "1999-025ESC", "EPOCH": "2025-12-06T03:10:56.878464", "MEAN_MOTION": 13.62307359, "ECCENTRICITY": 0.04264538, "INCLINATION": 99.0785, "RA_OF_ASC_NODE": 299.9654, "ARG_OF_PERICENTER": 262.3954, "MEAN_ANOMALY": 92.857, "EPHEMERIS_TYPE": 0, "CLASSIFICATION_TYPE": "U", "NORAD_CAT_ID": 38493, "ELEMENT_SET_NO": 999, "REV_AT_EPOCH": 56408, "BSTAR": 0.00068037536, "MEAN_MOTION_DOT": 9.28e-06, "MEAN_MOTION_DDOT": 0}, "tle": {"line1": "1 38493U 99025ESC 25340.13260276  .00000928  00000+0  68038-3 0  9999", "line2": "2 38493  99.0785 299.9654 0426453 262.3954  92.8570 13.62307359564089"}}, "geometry": {"type": "Point", "coordinates": [123.49766260487692, 18.620319349783607]}}, {"type": "Feature", "properties": {"norad_id": 38494, "name": "FENGYUN 1C DEB", "group": "fengyun-1c-debris", "lat": 73.49832928085203, "lon": -98.78438043617034, "alt_km": 697.9589953843815, "timestamp": "2025-12-06T14:35:37.416530+00:00", "meta": {"OBJECT_NAME": "FENGYUN 1C DEB", "OBJECT_ID": "1999-025ESD", "EPOCH": "2025-12-04T02:13:11.134272", "MEAN_MOTION": 13.99763364, "ECCENTRICITY": 0.03867998, "INCLINATION": 98.4342, "RA_OF_ASC_NODE": 288.9449, "ARG_OF_PERICENTER": 33.497, "MEAN_ANOMALY": 329.0026, "EPHEMERIS_TYPE": 0, "CLASSIFICATION_TYPE": "U", "NORAD_CAT_ID": 38494, "ELEMENT_SET_NO": 999, "REV_AT_EPOCH": 7033, "BSTAR": 0.010812505, "MEAN_MOTION_DOT": 0.00030392, "MEAN_MOTION_DDOT": 0}, "tle": {"line1": "1 38494U 99025ESD 25338.09248998  .00030392  00000+0  10813-1 0  9993", "line2": "2 38494  98.4342 288.9449 0386799  33.4970 329.0026 13.99763364 70338"}}, "geometry": {"type": "Point", "coordinates": [-98.78438043617034, 73.49832928085203]}}]}